[{"OBJECT_NAME":"STARLINK-4157","OBJECT_ID":"2022-076BB","EPOCH":"2025-09-15T01:57:16.392672","MEAN_MOTION":15.08841398,"ECCENTRICITY":0.00013285,"INCLINATION":53.2179,"RA_OF_ASC_NODE":142.4581,"ARG_OF_PERICENTER":92.6567,"MEAN_ANOMALY":267.4577,"EPHEMERIS_TYPE":0,"CLASSIFICATION_TYPE":"U","NORAD_CAT_ID":53035,"ELEMENT_SET_NO":999,"REV_AT_EPOCH":17661,"BSTAR":-1.5729407e-5,"MEAN_MOTION_DOT":-5.38e-6,"MEAN_MOTION_DDOT":0},{"OBJECT_NAME":"STARLINK-4155","OBJECT_ID":"2022-076BC","EPOCH":"2025-09-14T22:41:12.301728","MEAN_MOTION":15.08839032,"ECCENTRICITY":0.00022245,"INCLINATION":53.2178,"RA_OF_ASC_NODE":143.0695,"ARG_OF_PERICENTER":91.5006,"MEAN_ANOMALY":268.6241,"EPHEMERIS_TYPE":0,"CLASSIFICATION_TYPE":"U","NORAD_CAT_ID":53036,"ELEMENT_SET_NO":999,"REV_AT_EPOCH":17659,"BSTAR":6.6667013e-5,"MEAN_MOTION_DOT":7.73e-6,"MEAN_MOTION_DDOT":0},{"OBJECT_NAME":"STARLINK-4153","OBJECT_ID":"2022-076BD","EPOCH":"2025-09-14T22:35:54.326400","MEAN_MOTION":15.08839005,"ECCENTRICITY":0.00014702,"INCLINATION":53.2182,"RA_OF_ASC_NODE":143.087,"ARG_OF_PERICENTER":88.1199,"MEAN_ANOMALY":271.9962,"EPHEMERIS_TYPE":0,"CLASSIFICATION_TYPE":"U","NORAD_CAT_ID":53037,"ELEMENT_SET_NO":999,"REV_AT_EPOCH":17659,"BSTAR":9.5982226e-5,"MEAN_MOTION_DOT":1.24e-5,"MEAN_MOTION_DDOT":0},{"OBJECT_NAME":"STARLINK-4156","OBJECT_ID":"2022-076BE","EPOCH":"2025-09-15T01:41:22.674912","MEAN_MOTION":15.08838548,"ECCENTRICITY":0.00015499,"INCLINATION":53.2166,"RA_OF_ASC_NODE":142.5096,"ARG_OF_PERICENTER":88.9444,"MEAN_ANOMALY":271.1726,"EPHEMERIS_TYPE":0,"CLASSIFICATION_TYPE":"U","NORAD_CAT_ID":53038,"ELEMENT_SET_NO":999,"REV_AT_EPOCH":17661,"BSTAR":0.00010859752,"MEAN_MOTION_DOT":1.441e-5,"MEAN_MOTION_DDOT":0},{"OBJECT_NAME":"STARLINK-4362","OBJECT_ID":"2022-077A","EPOCH":"2025-09-15T05:07:49.985472","MEAN_MOTION":15.01259351,"ECCENTRICITY":0.00018026,"INCLINATION":97.6035,"RA_OF_ASC_NODE":78.4171,"ARG_OF_PERICENTER":134.8901,"MEAN_ANOMALY":225.247,"EPHEMERIS_TYPE":0,"CLASSIFICATION_TYPE":"U","NORAD_CAT_ID":53043,"ELEMENT_SET_NO":999,"REV_AT_EPOCH":17459,"BSTAR":-4.2362475e-5,"MEAN_MOTION_DOT":-6.02e-6,"MEAN_MOTION_DDOT":0},{"OBJECT_NAME":"STARLINK-4349","OBJECT_ID":"2022-077B","EPOCH":"2025-09-14T22:38:35.181600","MEAN_MOTION":15.01253191,"ECCENTRICITY":0.00029313,"INCLINATION":97.6037,"RA_OF_ASC_NODE":78.1512,"ARG_OF_PERICENTER":170.5622,"MEAN_ANOMALY":189.5658,"EPHEMERIS_TYPE":0,"CLASSIFICATION_TYPE":"U","NORAD_CAT_ID":53044,"ELEMENT_SET_NO":999,"REV_AT_EPOCH":17455,"BSTAR":9.487386e-6,"MEAN_MOTION_DOT":6.3e-7,"MEAN_MOTION_DDOT":0},{"OBJECT_NAME":"STARLINK-4350","OBJECT_ID":"2022-077C","EPOCH":"2025-09-15T05:10:29.768448","MEAN_MOTION":15.01261305,"ECCENTRICITY":0.00011972,"INCLINATION":97.6032,"RA_OF_ASC_NODE":78.4038,"ARG_OF_PERICENTER":161.6197,"MEAN_ANOMALY":198.5071,"EPHEMERIS_TYPE":0,"CLASSIFICATION_TYPE":"U","NORAD_CAT_ID":53045,"ELEMENT_SET_NO":999,"REV_AT_EPOCH":17459,"BSTAR":-1.5159078e-5,"MEAN_MOTION_DOT":-2.53e-6,"MEAN_MOTION_DDOT":0},{"OBJECT_NAME":"STARLINK-4331","OBJECT_ID":"2022-077D","EPOCH":"2025-09-15T05:08:11.265792","MEAN_MOTION":15.01255735,"ECCENTRICITY":0.00013939,"INCLINATION":97.6035,"RA_OF_ASC_NODE":78.4041,"ARG_OF_PERICENTER":160.7263,"MEAN_ANOMALY":199.4014,"EPHEMERIS_TYPE":0,"CLASSIFICATION_TYPE":"U","NORAD_CAT_ID":53046,"ELEMENT_SET_NO":999,"REV_AT_EPOCH":17459,"BSTAR":-2.016561e-6,"MEAN_MOTION_DOT":-8.4e-7,"MEAN_MOTION_DDOT":0},{"OBJECT_NAME":"STARLINK-4352","OBJECT_ID":"2022-077E","EPOCH":"2025-09-15T06:14:49.881984","MEAN_MOTION":15.01265466,"ECCENTRICITY":0.00014164,"INCLINATION":97.6045,"RA_OF_ASC_NODE":78.4915,"ARG_OF_PERICENTER":86.0969,"MEAN_ANOMALY":274.0418,"EPHEMERIS_TYPE":0,"CLASSIFICATION_TYPE":"U","NORAD_CAT_ID":53047,"ELEMENT_SET_NO":999,"REV_AT_EPOCH":17460,"BSTAR":0.00014117731,"MEAN_MOTION_DOT":1.756e-5,"MEAN_MOTION_DDOT":0},{"OBJECT_NAME":"STARLINK-4355","OBJECT_ID":"2022-077F","EPOCH":"2025-09-14T22:33:38.517696","MEAN_MOTION":15.01232314,"ECCENTRICITY":0.00020422,"INCLINATION":97.6026,"RA_OF_ASC_NODE":78.147,"ARG_OF_PERICENTER":161.8745,"MEAN_ANOMALY":198.2553,"EPHEMERIS_TYPE":0,"CLASSIFICATION_TYPE":"U","NORAD_CAT_ID":53048,"ELEMENT_SET_NO":999,"REV_AT_EPOCH":17454,"BSTAR":-0.00049784776,"MEAN_MOTION_DOT":-6.442e-5,"MEAN_MOTION_DDOT":0},{"OBJECT_NAME":"STARLINK-4345","OBJECT_ID":"2022-077G","EPOCH":"2025-09-14T22:22:35.093568","MEAN_MOTION":15.0126178,"ECCENTRICITY":9.884e-5,"INCLINATION":97.6045,"RA_OF_ASC_NODE":78.1443,"ARG_OF_PERICENTER":117.1565,"MEAN_ANOMALY":242.976,"EPHEMERIS_TYPE":0,"CLASSIFICATION_TYPE":"U","NORAD_CAT_ID":53049,"ELEMENT_SET_NO":999,"REV_AT_EPOCH":17454,"BSTAR":3.9809102e-5,"MEAN_MOTION_DOT":4.53e-6,"MEAN_MOTION_DDOT":0},{"OBJECT_NAME":"STARLINK-4343","OBJECT_ID":"2022-077H","EPOCH":"2025-09-14T22:30:35.072352","MEAN_MOTION":15.01260612,"ECCENTRICITY":0.00022584,"INCLINATION":97.604,"RA_OF_ASC_NODE":78.1451,"ARG_OF_PERICENTER":147.3812,"MEAN_ANOMALY":212.7552,"EPHEMERIS_TYPE":0,"CLASSIFICATION_TYPE":"U","NORAD_CAT_ID":53050,"ELEMENT_SET_NO":999,"REV_AT_EPOCH":17454,"BSTAR":1.912725e-6,"MEAN_MOTION_DOT":-3.4e-7,"MEAN_MOTION_DDOT":0},{"OBJECT_NAME":"STARLINK-4336","OBJECT_ID":"2022-077J","EPOCH":"2025-09-14T22:33:15.256224","MEAN_MOTION":15.01253123,"ECCENTRICITY":0.00019365,"INCLINATION":97.6034,"RA_OF_ASC_NODE":78.1284,"ARG_OF_PERICENTER":164.9902,"MEAN_ANOMALY":195.138,"EPHEMERIS_TYPE":0,"CLASSIFICATION_TYPE":"U","NORAD_CAT_ID":53051,"ELEMENT_SET_NO":999,"REV_AT_EPOCH":17454,"BSTAR":-6.4908379e-5,"MEAN_MOTION_DOT":-8.92e-6,"MEAN_MOTION_DDOT":0},{"OBJECT_NAME":"STARLINK-4341","OBJECT_ID":"2022-077K","EPOCH":"2025-09-14T22:27:55.166688","MEAN_MOTION":15.01261492,"ECCENTRICITY":0.00021495,"INCLINATION":97.6041,"RA_OF_ASC_NODE":78.1432,"ARG_OF_PERICENTER":140.3025,"MEAN_ANOMALY":219.8357,"EPHEMERIS_TYPE":0,"CLASSIFICATION_TYPE":"U","NORAD_CAT_ID":53052,"ELEMENT_SET_NO":999,"REV_AT_EPOCH":17454,"BSTAR":-9.053762e-6,"MEAN_MOTION_DOT":-1.75e-6,"MEAN_MOTION_DDOT":0},{"OBJECT_NAME":"STARLINK-4337","OBJECT_ID":"2022-077L","EPOCH":"2025-09-14T11:05:23.814816","MEAN_MOTION":15.0126432,"ECCENTRICITY":9.593e-5,"INCLINATION":97.6052,"RA_OF_ASC_NODE":77.6801,"ARG_OF_PERICENTER":88.6852,"MEAN_ANOMALY":271.4482,"EPHEMERIS_TYPE":0,"CLASSIFICATION_TYPE":"U","NORAD_CAT_ID":53053,"ELEMENT_SET_NO":999,"REV_AT_EPOCH":17447,"BSTAR":5.9680912e-5,"MEAN_MOTION_DOT":7.08e-6,"MEAN_MOTION_DDOT":0},{"OBJECT_NAME":"STARLINK-4339","OBJECT_ID":"2022-077M","EPOCH":"2025-09-14T22:25:15.264480","MEAN_MOTION":15.01264492,"ECCENTRICITY":0.0001822,"INCLINATION":97.6043,"RA_OF_ASC_NODE":78.1412,"ARG_OF_PERICENTER":123.911,"MEAN_ANOMALY":236.2288,"EPHEMERIS_TYPE":0,"CLASSIFICATION_TYPE":"U","NORAD_CAT_ID":53054,"ELEMENT_SET_NO":999,"REV_AT_EPOCH":17454,"BSTAR":-1.5629046e-5,"MEAN_MOTION_DOT":-2.59e-6,"MEAN_MOTION_DDOT":0},{"OBJECT_NAME":"STARLINK-4338","OBJECT_ID":"2022-077N","EPOCH":"2025-09-15T06:14:28.954176","MEAN_MOTION":15.01264833,"ECCENTRICITY":0.00010076,"INCLINATION":97.6044,"RA_OF_ASC_NODE":78.4617,"ARG_OF_PERICENTER":95.077,"MEAN_ANOMALY":265.057,"EPHEMERIS_TYPE":0,"CLASSIFICATION_TYPE":"U","NORAD_CAT_ID":53055,"ELEMENT_SET_NO":999,"REV_AT_EPOCH":17459,"BSTAR":6.7718961e-5,"MEAN_MOTION_DOT":8.12e-6,"MEAN_MOTION_DDOT":0},{"OBJECT_NAME":"STARLINK-4314","OBJECT_ID":"2022-077P","EPOCH":"2025-09-15T06:19:48.995328","MEAN_MOTION":15.01266637,"ECCENTRICITY":0.00011344,"INCLINATION":97.6047,"RA_OF_ASC_NODE":78.4646,"ARG_OF_PERICENTER":82.211,"MEAN_ANOMALY":277.9243,"EPHEMERIS_TYPE":0,"CLASSIFICATION_TYPE":"U","NORAD_CAT_ID":53056,"ELEMENT_SET_NO":999,"REV_AT_EPOCH":17459,"BSTAR":3.1910566e-5,"MEAN_MOTION_DOT":3.52e-6,"MEAN_MOTION_DDOT":0},{"OBJECT_NAME":"STARLINK-4252","OBJECT_ID":"2022-077Q","EPOCH":"2025-09-14T06:09:28.847232","MEAN_MOTION":15.0126008,"ECCENTRICITY":0.00014413,"INCLINATION":97.6046,"RA_OF_ASC_NODE":77.4816,"ARG_OF_PERICENTER":91.5594,"MEAN_ANOMALY":268.5796,"EPHEMERIS_TYPE":0,"CLASSIFICATION_TYPE":"U","NORAD_CAT_ID":53057,"ELEMENT_SET_NO":999,"REV_AT_EPOCH":17444,"BSTAR":8.8911143e-5,"MEAN_MOTION_DOT":1.084e-5,"MEAN_MOTION_DDOT":0},{"OBJECT_NAME":"STARLINK-4317","OBJECT_ID":"2022-077R","EPOCH":"2025-09-14T22:36:15.298272","MEAN_MOTION":15.01265391,"ECCENTRICITY":0.0001269,"INCLINATION":97.6055,"RA_OF_ASC_NODE":78.1167,"ARG_OF_PERICENTER":128.8526,"MEAN_ANOMALY":231.2811,"EPHEMERIS_TYPE":0,"CLASSIFICATION_TYPE":"U","NORAD_CAT_ID":53058,"ELEMENT_SET_NO":999,"REV_AT_EPOCH":17455,"BSTAR":0.00014120102,"MEAN_MOTION_DOT":1.756e-5,"MEAN_MOTION_DDOT":0},{"OBJECT_NAME":"STARLINK-4320","OBJECT_ID":"2022-077S","EPOCH":"2025-09-15T06:04:12.974880","MEAN_MOTION":15.01253917,"ECCENTRICITY":0.00034881,"INCLINATION":97.6028,"RA_OF_ASC_NODE":78.4574,"ARG_OF_PERICENTER":90.2798,"MEAN_ANOMALY":269.8826,"EPHEMERIS_TYPE":0,"CLASSIFICATION_TYPE":"U","NORAD_CAT_ID":53059,"ELEMENT_SET_NO":999,"REV_AT_EPOCH":17459,"BSTAR":0.00024261103,"MEAN_MOTION_DOT":3.059e-5,"MEAN_MOTION_DDOT":0},{"OBJECT_NAME":"STARLINK-4305","OBJECT_ID":"2022-077T","EPOCH":"2025-09-14T06:12:07.661664","MEAN_MOTION":15.01262354,"ECCENTRICITY":0.00016211,"INCLINATION":97.6039,"RA_OF_ASC_NODE":77.4818,"ARG_OF_PERICENTER":81.9143,"MEAN_ANOMALY":278.2266,"EPHEMERIS_TYPE":0,"CLASSIFICATION_TYPE":"U","NORAD_CAT_ID":53060,"ELEMENT_SET_NO":999,"REV_AT_EPOCH":17444,"BSTAR":5.2379026e-5,"MEAN_MOTION_DOT":6.15e-6,"MEAN_MOTION_DDOT":0},{"OBJECT_NAME":"STARLINK-4308","OBJECT_ID":"2022-077U","EPOCH":"2025-09-15T06:01:09.221952","MEAN_MOTION":15.01264019,"ECCENTRICITY":0.00012055,"INCLINATION":97.6041,"RA_OF_ASC_NODE":78.4585,"ARG_OF_PERICENTER":75.3564,"MEAN_ANOMALY":284.7794,"EPHEMERIS_TYPE":0,"CLASSIFICATION_TYPE":"U","NORAD_CAT_ID":53061,"ELEMENT_SET_NO":999,"REV_AT_EPOCH":17459,"BSTAR":5.3029075e-5,"MEAN_MOTION_DOT":6.23e-6,"MEAN_MOTION_DDOT":0}]
